[{"OBJECT_NAME":"IRIDIUM 178","OBJECT_ID":"2023-068V","EPOCH":"2026-03-09T22:29:43.646208","MEAN_MOTION":14.80237854,"ECCENTRICITY":0.00024806,"INCLINATION":86.6486,"RA_OF_ASC_NODE":66.834,"ARG_OF_PERICENTER":100.7522,"MEAN_ANOMALY":259.3979,"EPHEMERIS_TYPE":0,"CLASSIFICATION_TYPE":"U","NORAD_CAT_ID":56729,"ELEMENT_SET_NO":999,"REV_AT_EPOCH":15168,"BSTAR":8.8663606e-5,"MEAN_MOTION_DOT":7.0e-6,"MEAN_MOTION_DDOT":0},{"OBJECT_NAME":"FENGYUN 1C DEB","OBJECT_ID":"1999-025AJK","EPOCH":"2026-03-09T08:00:54.953568","MEAN_MOTION":14.58983073,"ECCENTRICITY":0.01339605,"INCLINATION":98.9977,"RA_OF_ASC_NODE":215.6769,"ARG_OF_PERICENTER":340.6824,"MEAN_ANOMALY":18.9322,"EPHEMERIS_TYPE":0,"CLASSIFICATION_TYPE":"U","NORAD_CAT_ID":30521,"ELEMENT_SET_NO":999,"REV_AT_EPOCH":842,"BSTAR":0.00049853942,"MEAN_MOTION_DOT":2.588e-5,"MEAN_MOTION_DDOT":0}]
